[{"OBJECT_NAME":"GEOSCAN 3 (RS92S3)","OBJECT_ID":"2025-155T","EPOCH":"2026-03-09T22:52:10.587648","MEAN_MOTION":15.31696739,"ECCENTRICITY":0.00068078,"INCLINATION":97.4455,"RA_OF_ASC_NODE":37.9971,"ARG_OF_PERICENTER":154.1387,"MEAN_ANOMALY":206.0196,"EPHEMERIS_TYPE":0,"CLASSIFICATION_TYPE":"U","NORAD_CAT_ID":64893,"ELEMENT_SET_NO":999,"REV_AT_EPOCH":6564,"BSTAR":0.00078414081,"MEAN_MOTION_DOT":0.00023985,"MEAN_MOTION_DDOT":0},{"OBJECT_NAME":"STARLINK-36098","OBJECT_ID":"2025-278AB","EPOCH":"2026-03-09T11:49:30.245088","MEAN_MOTION":15.27601999,"ECCENTRICITY":9.493e-5,"INCLINATION":42.9988,"RA_OF_ASC_NODE":115.068,"ARG_OF_PERICENTER":16.3648,"MEAN_ANOMALY":343.7234,"EPHEMERIS_TYPE":0,"CLASSIFICATION_TYPE":"U","NORAD_CAT_ID":66816,"ELEMENT_SET_NO":999,"REV_AT_EPOCH":1518,"BSTAR":0.0013487873,"MEAN_MOTION_DOT":0.00037065,"MEAN_MOTION_DDOT":0}]
